NORAD_CAT_ID,OBJECT_NAME,OBJECT_TYPE,EPOCH,MEAN_MOTION,ECCENTRICITY,INCLINATION,RA_OF_ASC_NODE,ARG_OF_PERICENTER,MEAN_ANOMALY,BSTAR,MEAN_MOTION_DOT,MEAN_MOTION_DDOT,TLE_LINE0,TLE_LINE1,TLE_LINE2,SEMIMAJOR_AXIS,PERIOD,APOGEE,PERIGEE,DECAYED
50205.0,STARLINK-3260,PAYLOAD,2022-12-03 19:30:40,15.08837499,0.0003198,53.2169,159.6701,43.708,316.4165,0.00013987,1.938e-05,0.0,0 STARLINK-3260,1 50205U 21125BB  22337.81296870  .00001938  00000-0  13987-3 0  9993,2 50205  53.2169 159.6701 0003198  43.7080 316.4165 15.08837499 57228,6917.888000000001,95.438,541.965,537.5409999999998,0.0
50205.0,STARLINK-3260,PAYLOAD,2022-12-03 21:06:03,15.08838053,0.0003197,53.2169,159.3728,43.922,316.2026,0.0001509,2.114e-05,0.0,0 STARLINK-3260,1 50205U 21125BB  22337.87920880  .00002114  00000-0  15090-3 0  9998,2 50205  53.2169 159.3728 0003197  43.9220 316.2026 15.08838053 56760,6917.886,95.438,541.9630000000002,537.54,0.0
50205.0,STARLINK-3260,PAYLOAD,2022-12-04 12:59:55,15.08835067,0.0003191,53.2168,156.3991,45.3388,314.7864,0.00036759,5.566e-05,0.0,0 STARLINK-3260,1 50205U 21125BB  22338.54161397  .00005566  00000-0  36759-3 0  9992,2 50205  53.2168 156.3991 0003191  45.3388 314.7864 15.08835067 57332,6917.895,95.438,541.9680000000002,537.553,0.0
50205.0,STARLINK-3260,PAYLOAD,2022-12-04 16:10:41,15.08839328,0.0003191,53.2168,155.8044,46.6274,313.4984,0.00044929,6.869e-05,0.0,0 STARLINK-3260,1 50205U 21125BB  22338.67409340  .00006869  00000-0  44929-3 0  9994,2 50205  53.2168 155.8044 0003191  46.6274 313.4984 15.08839328 57358,6917.882,95.438,541.955,537.54,0.0
50205.0,STARLINK-3260,PAYLOAD,2022-12-04 22:32:13,15.08848779,0.0003196,53.2168,154.615,46.2846,313.841,0.0002358,3.467e-05,0.0,0 STARLINK-3260,1 50205U 21125BB  22338.93904720  .00003467  00000-0  23580-3 0  9996,2 50205  53.2168 154.6150 0003196  46.2846 313.8410 15.08848779 56929,6917.854,95.437,541.93,537.508,0.0
50205.0,STARLINK-3260,PAYLOAD,2022-12-05 12:50:41,15.08852849,0.000318,53.2165,151.9386,47.8252,312.3009,0.00022229,3.252e-05,0.0,0 STARLINK-3260,1 50205U 21125BB  22339.53520226  .00003252  00000-0  22229-3 0  9999,2 50205  53.2165 151.9386 0003180  47.8252 312.3009 15.08852849 57481,6917.840999999999,95.437,541.906,537.506,0.0
50205.0,STARLINK-3260,PAYLOAD,2022-12-05 20:47:36,15.08856952,0.0003208999999999,53.2165,150.4518,48.2286,311.898,0.00026914,4e-05,0.0,0 STARLINK-3260,1 50205U 21125BB  22339.86639855  .00004000  00000-0  26914-3 0  9991,2 50205  53.2165 150.4518 0003209  48.2286 311.8980 15.08856952 57533,6917.829000000002,95.436,541.914,537.474,0.0
50205.0,STARLINK-3260,PAYLOAD,2022-12-06 11:06:04,15.0885575,0.0003249,53.2164,147.7755,49.4806,310.6468,0.00017295,2.466e-05,0.0,0 STARLINK-3260,1 50205U 21125BB  22340.46255381  .00002466  00000-0  17295-3 0  9993,2 50205  53.2164 147.7755 0003249  49.4806 310.6468 15.08855750 57622,6917.831999999999,95.437,541.945,537.45,0.0
50205.0,STARLINK-3260,PAYLOAD,2022-12-06 14:16:50,15.08853122,0.0003267,53.2165,147.1806,49.8677,310.2601,0.00011866,1.601e-05,0.0,0 STARLINK-3260,1 50205U 21125BB  22340.59503412  .00001601  00000-0  11866-3 0  9996,2 50205  53.2165 147.1806 0003267  49.8677 310.2601 15.08853122 57170,6917.84,95.437,541.965,537.445,0.0
50205.0,STARLINK-3260,PAYLOAD,2022-12-06 19:03:00,15.08849158,0.0003238,53.2172,146.2886,49.7917,310.3358,4.211e-05,3.82e-06,0.0,0 STARLINK-3260,1 50205U 21125BB  22340.79375493  .00000382  00000-0  42110-4 0  9996,2 50205  53.2172 146.2886 0003238  49.7917 310.3358 15.08849158 57679,6917.852,95.437,541.957,537.477,0.0
50205.0,STARLINK-3260,PAYLOAD,2022-12-06 23:49:09,15.0884886,0.000323,53.217,145.3965,49.6755,310.4519,2.6716e-05,1.37e-06,0.0,0 STARLINK-3260,1 50205U 21125BB  22340.99247368  .00000137  00000-0  26716-4 0  9999,2 50205  53.2170 145.3965 0003230  49.6755 310.4519 15.08848860 57237,6917.853,95.437,541.953,537.484,0.0
50205.0,STARLINK-3260,PAYLOAD,2022-12-07 20:29:10,15.08862702,0.00033,53.2183,141.5319,54.99,305.1402,-0.0002799,-4.744e-05,0.0,0 STARLINK-3260,1 50205U 21125BB  22341.85358922 -.00004744  00000-0 -27990-3 0  9998,2 50205  53.2183 141.5319 0003300  54.9900 305.1402 15.08862702 57830,6917.811,95.436,541.9590000000002,537.393,0.0
50205.0,STARLINK-3260,PAYLOAD,2022-12-08 04:26:05,15.08850048,0.00032,53.2181,140.0446,50.0129,310.1144,-1.8462e-06,-3.18e-06,0.0,0 STARLINK-3260,1 50205U 21125BB  22342.18479110 -.00000318  00000-0 -18462-5 0  9997,2 50205  53.2181 140.0446 0003200  50.0129 310.1144 15.08850048 57415,6917.85,95.437,541.928,537.501,0.0
50205.0,STARLINK-3260,PAYLOAD,2022-12-08 12:23:01,15.0884499,0.0003123,53.2183,138.558,49.0159,311.1103,9.3953e-05,1.207e-05,0.0,0 STARLINK-3260,1 50205U 21125BB  22342.51599072  .00001207  00000-0  93953-4 0  9997,2 50205  53.2183 138.5580 0003123  49.0159 311.1103 15.08844990 57935,6917.865,95.437,541.891,537.57,0.0
50205.0,STARLINK-3260,PAYLOAD,2022-12-08 18:44:33,15.08851079,0.0003333,53.2175,137.3703,49.8307,310.2977,0.00012705,1.735e-05,0.0,0 STARLINK-3260,1 50205U 21125BB  22342.78094813  .00001735  00000-0  12705-3 0  9990,2 50205  53.2175 137.3703 0003333  49.8307 310.2977 15.08851079 57975,6917.847,95.437,542.0169999999998,537.406,0.0
50205.0,STARLINK-3260,PAYLOAD,2022-12-08 21:55:20,15.08852452,0.0003439,53.2172,136.7738,49.65600000000001,310.4732,0.0002268,3.324e-05,0.0,0 STARLINK-3260,1 50205U 21125BB  22342.91342733  .00003324  00000-0  22680-3 0  9991,2 50205  53.2172 136.7738 0003439  49.6560 310.4732 15.08852452 57998,6917.842,95.437,542.086,537.328,0.0
50205.0,STARLINK-3260,PAYLOAD,2022-12-09 16:59:56,15.08868186,0.0002254,53.218,133.209,9.961,350.1426,0.0003312,4.991e-05,0.0,0 STARLINK-3260,1 50205U 21125BB  22343.70829822  .00004991  00000-0  33120-3 0  9990,2 50205  53.2180 133.2090 0002254   9.9610 350.1426 15.08868186 57643,6917.794,95.436,541.219,538.1,0.0
50205.0,STARLINK-3260,PAYLOAD,2022-12-10 13:40:00,15.08811886,0.0002836,53.218,129.3422,20.0501,340.0602,0.00075762,0.00011781,0.0,0 STARLINK-3260,1 50205U 21125BB  22344.56944786  .00011781  00000-0  75762-3 0  9995,2 50205  53.2180 129.3422 0002836  20.0501 340.0602 15.08811886 57770,6917.965999999999,95.439,541.793,537.869,0.0
50205.0,STARLINK-3260,PAYLOAD,2022-12-10 16:50:45,15.08842002,0.0003156,53.2176,128.7452,51.4639,308.6636,2.4994e-05,1.09e-06,0.0,0 STARLINK-3260,1 50205U 21125BB  22344.70191133  .00000109  00000-0  24994-4 0  9995,2 50205  53.2176 128.7452 0003156  51.4639 308.6636 15.08842002 57790,6917.874,95.437,541.923,537.556,0.0
50205.0,STARLINK-3260,PAYLOAD,2022-12-11 10:19:59,15.08842498,0.0002558,53.2174,125.4731,52.3883,307.7341,0.00023511,3.456e-05,0.0,0 STARLINK-3260,1 50205U 21125BB  22345.43054925  .00003456  00000-0  23511-3 0  9994,2 50205  53.2174 125.4731 0002558  52.3883 307.7341 15.08842498 58375,6917.873000000001,95.437,541.507,537.9680000000002,0.0
50205.0,STARLINK-3260,PAYLOAD,2022-12-11 18:16:55,15.08841102,0.0002995,53.2177,123.9867,46.7476,313.3766,0.00015024,2.103e-05,0.0,0 STARLINK-3260,1 50205U 21125BB  22345.76175004  .00002103  00000-0  15024-3 0  9990,2 50205  53.2177 123.9867 0002995  46.7476 313.3766 15.08841102 57959,6917.877,95.437,541.814,537.67,0.0
50205.0,STARLINK-3260,PAYLOAD,2022-12-12 08:35:23,15.08843328,0.0003092,53.2176,121.3103,50.291,309.8354,4.1755e-05,3.76e-06,0.0,0 STARLINK-3260,1 50205U 21125BB  22346.35790900  .00000376  00000-0  41755-4 0  9995,2 50205  53.2176 121.3103 0003092  50.2910 309.8354 15.08843328 58513,6917.87,95.437,541.874,537.596,0.0
50205.0,STARLINK-3260,PAYLOAD,2022-12-12 13:21:32,15.08842737,0.0003073,53.2176,120.4184,50.6857,309.4407,2.4342e-05,9.9e-07,0.0,0 STARLINK-3260,1 50205U 21125BB  22346.55662860  .00000099  00000-0  24342-4 0  9995,2 50205  53.2176 120.4184 0003073  50.6857 309.4407 15.08842737 58546,6917.871999999999,95.437,541.863,537.611,0.0
50205.0,STARLINK-3260,PAYLOAD,2022-12-13 02:04:37,15.08846342,0.0003106,53.2176,118.0397,49.2796,310.8466,4.6811e-05,4.57e-06,0.0,0 STARLINK-3260,1 50205U 21125BB  22347.08654532  .00000457  00000-0  46811-4 0  9994,2 50205  53.2176 118.0397 0003106  49.2796 310.8466 15.08846342 58152,6917.861,95.437,541.875,537.577,0.0
50205.0,STARLINK-3260,PAYLOAD,2022-12-13 14:47:43,15.08838757,0.0003141,53.2182,115.6611,50.5053,309.6216,3.9278e-05,3.36e-06,0.0,0 STARLINK-3260,1 50205U 21125BB  22347.61647214  .00000336  00000-0  39278-4 0  9997,2 50205  53.2182 115.6611 0003141  50.5053 309.6216 15.08838757 58702,6917.884,95.438,541.922,537.576,0.0
50205.0,STARLINK-3260,PAYLOAD,2022-12-13 16:23:06,15.08834192,0.000296,53.2181,115.3641,45.4167,314.7066,-1.0874e-06,-3.06e-06,0.0,0 STARLINK-3260,1 50205U 21125BB  22347.68271559 -.00000306  00000-0 -10874-5 0  9990,2 50205  53.2181 115.3641 0002960  45.4167 314.7066 15.08834192 58246,6917.898,95.438,541.811,537.715,0.0
50205.0,STARLINK-3260,PAYLOAD,2022-12-14 01:55:25,15.08840268,0.0002861,53.2182,113.5801,49.7387,310.3855,1.612e-05,-3.2e-07,0.0,0 STARLINK-3260,1 50205U 21125BB  22348.08015120 -.00000032  00000-0  16120-4 0  9999,2 50205  53.2182 113.5801 0002861  49.7387 310.3855 15.08840268 58302,6917.88,95.438,541.724,537.765,0.0
50205.0,STARLINK-3260,PAYLOAD,2022-12-14 14:38:29,15.08862575,0.0002969,53.218,111.2016,46.5609,313.563,-0.00024765,-4.231e-05,0.0,0 STARLINK-3260,1 50205U 21125BB  22348.61006385 -.00004231  00000-0 -24765-3 0  9990,2 50205  53.2180 111.2016 0002969  46.5609 313.5630 15.08862575 58855,6917.811,95.436,541.73,537.622,0.0
50205.0,STARLINK-3260,PAYLOAD,2022-12-15 08:07:44,15.08840886,0.0002985,53.2186,107.931,49.3264,310.7987,7.3285e-05,8.78e-06,0.0,0 STARLINK-3260,1 50205U 21125BB  22349.33870935  .00000878  00000-0  73285-4 0  9993,2 50205  53.2186 107.9310 0002985  49.3264 310.7987 15.08840886 58491,6917.878000000002,95.437,541.808,537.678,0.0
